{
  "type": "FeatureCollection",
  "features": [
    {
      "type": "Feature",
      "properties": {
        "norad_id": 41877,
        "name": "RESOURCESAT-2A",
        "group": "resource",
        "lat": -81.00373225763431,
        "lon": 161.36716196832967,
        "alt_km": 826.4723380136174,
        "timestamp": "2025-12-14T20:40:31.425330+00:00",
        "meta_object_name": "RESOURCESAT-2A",
        "meta_object_id": "2016-074A",
        "meta_epoch": "2025-12-14T07:35:38.217984",
        "meta_mean_motion": 14.21601772,
        "meta_eccentricity": 0.00012004,
        "meta_inclination": 98.7754,
        "meta_ra_of_asc_node": 58.1628,
        "meta_arg_of_pericenter": 246.3292,
        "meta_mean_anomaly": 113.7759,
        "meta_ephemeris_type": 0,
        "meta_classification_type": "U",
        "meta_norad_cat_id": 41877,
        "meta_element_set_no": 999,
        "meta_rev_at_epoch": 46803,
        "meta_bstar": 0.00027290498,
        "meta_mean_motion_dot": 5.54e-06,
        "meta_mean_motion_ddot": 0,
        "tle_line1": "1 41877U 16074A   25348.31641456  .00000554  00000+0  27290-3 0  9993",
        "tle_line2": "2 41877  98.7754  58.1628 0001200 246.3292 113.7759 14.21601772468035"
      },
      "geometry": {
        "type": "Point",
        "coordinates": [
          161.36716196832967,
          -81.00373225763431
        ]
      }
    },
    {
      "type": "Feature",
      "properties": {
        "norad_id": 41948,
        "name": "CARTOSAT-2D",
        "group": "resource",
        "lat": -60.04686900539154,
        "lon": 59.432442684955696,
        "alt_km": 517.882889690567,
        "timestamp": "2025-12-14T20:40:31.425341+00:00",
        "meta_object_name": "CARTOSAT-2D",
        "meta_object_id": "2017-008A",
        "meta_epoch": "2025-12-14T08:17:51.732960",
        "meta_mean_motion": 15.19281272,
        "meta_eccentricity": 0.00048339,
        "meta_inclination": 97.4394,
        "meta_ra_of_asc_node": 45.8186,
        "meta_arg_of_pericenter": 156.4375,
        "meta_mean_anomaly": 203.7082,
        "meta_ephemeris_type": 0,
        "meta_classification_type": "U",
        "meta_norad_cat_id": 41948,
        "meta_element_set_no": 999,
        "meta_rev_at_epoch": 48951,
        "meta_bstar": 0.00023518297,
        "meta_mean_motion_dot": 4.895e-05,
        "meta_mean_motion_ddot": 0,
        "tle_line1": "1 41948U 17008A   25348.34573765  .00004895  00000+0  23518-3 0  9991",
        "tle_line2": "2 41948  97.4394  45.8186 0004833 156.4375 203.7082 15.19281272489512"
      },
      "geometry": {
        "type": "Point",
        "coordinates": [
          59.432442684955696,
          -60.04686900539154
        ]
      }
    },
    {
      "type": "Feature",
      "properties": {
        "norad_id": 42063,
        "name": "SENTINEL-2B",
        "group": "resource",
        "lat": -52.36998729624679,
        "lon": 72.5584380814185,
        "alt_km": 796.6164350208919,
        "timestamp": "2025-12-14T20:40:31.425351+00:00",
        "meta_object_name": "SENTINEL-2B",
        "meta_object_id": "2017-013A",
        "meta_epoch": "2025-12-14T09:10:31.696320",
        "meta_mean_motion": 14.30817664,
        "meta_eccentricity": 0.00011659,
        "meta_inclination": 98.5711,
        "meta_ra_of_asc_node": 60.8047,
        "meta_arg_of_pericenter": 92.9926,
        "meta_mean_anomaly": 267.139,
        "meta_ephemeris_type": 0,
        "meta_classification_type": "U",
        "meta_norad_cat_id": 42063,
        "meta_element_set_no": 999,
        "meta_rev_at_epoch": 45821,
        "meta_bstar": 0.00015303514,
        "meta_mean_motion_dot": 3.57e-06,
        "meta_mean_motion_ddot": 0,
        "tle_line1": "1 42063U 17013A   25348.38231130  .00000357  00000+0  15304-3 0  9990",
        "tle_line2": "2 42063  98.5711  60.8047 0001165  92.9926 267.1390 14.30817664458211"
      },
      "geometry": {
        "type": "Point",
        "coordinates": [
          72.5584380814185,
          -52.36998729624679
        ]
      }
    },
    {
      "type": "Feature",
      "properties": {
        "norad_id": 42767,
        "name": "CARTOSAT-2E",
        "group": "resource",
        "lat": -29.330588203589713,
        "lon": -137.79945842500112,
        "alt_km": 512.812813837987,
        "timestamp": "2025-12-14T20:40:31.425361+00:00",
        "meta_object_name": "CARTOSAT-2E",
        "meta_object_id": "2017-036C",
        "meta_epoch": "2025-12-14T07:06:35.492832",
        "meta_mean_motion": 15.19222015,
        "meta_eccentricity": 0.00020655,
        "meta_inclination": 97.4561,
        "meta_ra_of_asc_node": 45.8626,
        "meta_arg_of_pericenter": 230.793,
        "meta_mean_anomaly": 129.3122,
        "meta_ephemeris_type": 0,
        "meta_classification_type": "U",
        "meta_norad_cat_id": 42767,
        "meta_element_set_no": 999,
        "meta_rev_at_epoch": 47007,
        "meta_bstar": 0.00031073378,
        "meta_mean_motion_dot": 6.477e-05,
        "meta_mean_motion_ddot": 0,
        "tle_line1": "1 42767U 17036C   25348.29624413  .00006477  00000+0  31073-3 0  9996",
        "tle_line2": "2 42767  97.4561  45.8626 0002065 230.7930 129.3122 15.19222015470074"
      },
      "geometry": {
        "type": "Point",
        "coordinates": [
          -137.79945842500112,
          -29.330588203589713
        ]
      }
    },
    {
      "type": "Feature",
      "properties": {
        "norad_id": 42920,
        "name": "FORMOSAT-5",
        "group": "resource",
        "lat": 74.69930603637262,
        "lon": -84.85516379521549,
        "alt_km": 722.1963791690187,
        "timestamp": "2025-12-14T20:40:31.425372+00:00",
        "meta_object_name": "FORMOSAT-5",
        "meta_object_id": "2017-049A",
        "meta_epoch": "2025-12-14T06:57:44.831808",
        "meta_mean_motion": 14.51006633,
        "meta_eccentricity": 0.00098472,
        "meta_inclination": 98.2452,
        "meta_ra_of_asc_node": 62.5784,
        "meta_arg_of_pericenter": 290.1767,
        "meta_mean_anomaly": 69.8369,
        "meta_ephemeris_type": 0,
        "meta_classification_type": "U",
        "meta_norad_cat_id": 42920,
        "meta_element_set_no": 999,
        "meta_rev_at_epoch": 43986,
        "meta_bstar": 9.4992684e-05,
        "meta_mean_motion_dot": 3.32e-06,
        "meta_mean_motion_ddot": 0,
        "tle_line1": "1 42920U 17049A   25348.29010222  .00000332  00000+0  94993-4 0  9993",
        "tle_line2": "2 42920  98.2452  62.5784 0009847 290.1767  69.8369 14.51006633439861"
      },
      "geometry": {
        "type": "Point",
        "coordinates": [
          -84.85516379521549,
          74.69930603637262
        ]
      }
    },
    {
      "type": "Feature",
      "properties": {
        "norad_id": 42969,
        "name": "SENTINEL-5P",
        "group": "resource",
        "lat": -75.43425978266049,
        "lon": 70.93697432726906,
        "alt_km": 834.9749688229876,
        "timestamp": "2025-12-14T20:40:31.425382+00:00",
        "meta_object_name": "SENTINEL-5P",
        "meta_object_id": "2017-064A",
        "meta_epoch": "2025-12-14T07:37:13.945728",
        "meta_mean_motion": 14.19518068,
        "meta_eccentricity": 9.775e-05,
        "meta_inclination": 98.7785,
        "meta_ra_of_asc_node": 286.8876,
        "meta_arg_of_pericenter": 88.989,
        "meta_mean_anomaly": 271.1398,
        "meta_ephemeris_type": 0,
        "meta_classification_type": "U",
        "meta_norad_cat_id": 42969,
        "meta_element_set_no": 999,
        "meta_rev_at_epoch": 42333,
        "meta_bstar": 7.790004e-05,
        "meta_mean_motion_dot": 1.2e-06,
        "meta_mean_motion_ddot": 0,
        "tle_line1": "1 42969U 17064A   25348.31752252  .00000120  00000+0  77900-4 0  9996",
        "tle_line2": "2 42969  98.7785 286.8876 0000977  88.9890 271.1398 14.19518068423335"
      },
      "geometry": {
        "type": "Point",
        "coordinates": [
          70.93697432726906,
          -75.43425978266049
        ]
      }
    },
    {
      "type": "Feature",
      "properties": {
        "norad_id": 42987,
        "name": "SKYSAT-C11",
        "group": "resource",
        "lat": -82.28590525954517,
        "lon": -127.599465349671,
        "alt_km": 431.9572913473912,
        "timestamp": "2025-12-14T20:40:31.425392+00:00",
        "meta_object_name": "SKYSAT-C11",
        "meta_object_id": "2017-068A",
        "meta_epoch": "2025-12-14T08:39:29.706336",
        "meta_mean_motion": 15.47532802,
        "meta_eccentricity": 0.00010667,
        "meta_inclination": 97.4136,
        "meta_ra_of_asc_node": 125.8924,
        "meta_arg_of_pericenter": 101.5885,
        "meta_mean_anomaly": 258.5485,
        "meta_ephemeris_type": 0,
        "meta_classification_type": "U",
        "meta_norad_cat_id": 42987,
        "meta_element_set_no": 999,
        "meta_rev_at_epoch": 45456,
        "meta_bstar": 0.00047454411,
        "meta_mean_motion_dot": 0.0002435,
        "meta_mean_motion_ddot": 0,
        "tle_line1": "1 42987U 17068A   25348.36076049  .00024350  00000+0  47454-3 0  9999",
        "tle_line2": "2 42987  97.4136 125.8924 0001066 101.5885 258.5485 15.47532802454562"
      },
      "geometry": {
        "type": "Point",
        "coordinates": [
          -127.599465349671,
          -82.28590525954517
        ]
      }
    }
  ]
}